{
  "type": "FeatureCollection",
  "crs": {
    "type": "name",
    "properties": { "name": "urn:ogc:def:crs:OGC:1.3:CRS84" }
  },
  "description": "MOCK fixture — hand-authored geometry for Placa dels Angels, Barcelona. NOT surveyed OSM data. For deterministic offline spatial tests only. See MOCKS.md.",
  "features": [
    {
      "type": "Feature",
      "properties": {
        "kind": "site_boundary",
        "name": "Placa dels Angels approximate boundary",
        "note": "MOCK — hand-authored 60m x 42m rectangle anchored at centroid lon=2.1670, lat=41.3826"
      },
      "geometry": {
        "type": "Polygon",
        "coordinates": [[
          [2.1666408, 41.3824114],
          [2.1673592, 41.3824114],
          [2.1673592, 41.3827886],
          [2.1666408, 41.3827886],
          [2.1666408, 41.3824114]
        ]]
      }
    },
    {
      "type": "Feature",
      "properties": {
        "kind": "building",
        "name": "MACBA north-edge block (approximate)",
        "note": "MOCK — hand-authored 8m deep strip along the north edge of the plaza"
      },
      "geometry": {
        "type": "Polygon",
        "coordinates": [[
          [2.1666648, 41.3827168],
          [2.1673352, 41.3827168],
          [2.1673352, 41.3827886],
          [2.1666648, 41.3827886],
          [2.1666648, 41.3827168]
        ]]
      }
    },
    {
      "type": "Feature",
      "properties": {
        "kind": "building",
        "name": "East pavilion block (approximate)",
        "note": "MOCK — hand-authored small block near east edge for coverage testing"
      },
      "geometry": {
        "type": "Polygon",
        "coordinates": [[
          [2.1672400, 41.3824400],
          [2.1673200, 41.3824400],
          [2.1673200, 41.3825000],
          [2.1672400, 41.3825000],
          [2.1672400, 41.3824400]
        ]]
      }
    },
    {
      "type": "Feature",
      "properties": {
        "kind": "street",
        "name": "Carrer dels Angels east-west service road (approximate)",
        "note": "MOCK — hand-authored E-W centerline through plaza midpoint"
      },
      "geometry": {
        "type": "LineString",
        "coordinates": [
          [2.1665408, 41.3826000],
          [2.1670000, 41.3826000],
          [2.1674592, 41.3826000]
        ]
      }
    }
  ]
}
